IXPE                    
1 49954U 21121A   24272.58334491  .00011826  00000+0  85367-3 0  9991
2 49954   0.2308 344.9144 0008621  20.3903 100.5730 15.00181238153441
